ONEWEB-0415             
1 51624U 22012C   25193.29516426  .00000298  00000+0  81624-3 0  9992
2 51624  87.8816 104.0589 0002111  69.3193 290.8160 13.10369116164773
ONEWEB-0416             
1 51625U 22012D   25193.30677958 -.00000291  00000+0 -86947-3 0  9991
2 51625  87.8823 104.0742 0001887  75.1906 284.9430 13.10370262164812
ONEWEB-0422             
1 51626U 22012E   25193.41304332  .00000087  00000+0  19187-3 0  9990
2 51626  87.9051  73.4838 0002481  88.8965 271.2450 13.17648565169063
ONEWEB-0423             
1 51627U 22012F   25193.40629261  .00000101  00000+0  22616-3 0  9999
2 51627  87.9053  73.4929 0001798  82.5986 277.5350 13.17647849168950
ONEWEB-0425             
1 51628U 22012G   25193.46944961 -.00000675  00000+0 -19687-2 0  9994
2 51628  87.8821 104.0120 0001607  81.9844 278.1466 13.10371714164838
ONEWEB-0428             
1 51629U 22012H   25193.44954561  .00000168  00000+0  44579-3 0  9994
2 51629  87.8821 104.0376 0002127  77.6302 282.5064 13.10369060164790
ONEWEB-0431             
1 51630U 22012J   25193.49588908  .00000292  00000+0  80048-3 0  9998
2 51630  87.8819 103.9991 0002468  70.2080 289.9313 13.10375386164853
ONEWEB-0434             
1 51631U 22012K   25193.47276716 -.00000645  00000+0 -18854-2 0  9997
2 51631  87.8825 104.0456 0001377  90.4622 269.6664 13.10373023164831
